[{"OBJECT_NAME":"STARLINK-4338","OBJECT_ID":"2022-077N","EPOCH":"2026-03-09T22:24:49.276224","MEAN_MOTION":15.05645383,"ECCENTRICITY":0.00014566,"INCLINATION":97.6023,"RA_OF_ASC_NODE":251.4217,"ARG_OF_PERICENTER":87.4689,"MEAN_ANOMALY":272.6704,"EPHEMERIS_TYPE":0,"CLASSIFICATION_TYPE":"U","NORAD_CAT_ID":53055,"ELEMENT_SET_NO":999,"REV_AT_EPOCH":20101,"BSTAR":1.16739e-7,"MEAN_MOTION_DOT":-5.9e-7,"MEAN_MOTION_DDOT":0},{"OBJECT_NAME":"ELECTRON KICK STAGE R\/B","OBJECT_ID":"2025-050C","EPOCH":"2026-03-09T00:02:16.856736","MEAN_MOTION":15.02509392,"ECCENTRICITY":0.00035941,"INCLINATION":42.0177,"RA_OF_ASC_NODE":293.46,"ARG_OF_PERICENTER":187.3175,"MEAN_ANOMALY":172.76,"EPHEMERIS_TYPE":0,"CLASSIFICATION_TYPE":"U","NORAD_CAT_ID":63207,"ELEMENT_SET_NO":999,"REV_AT_EPOCH":5391,"BSTAR":0.00054837611,"MEAN_MOTION_DOT":7.227e-5,"MEAN_MOTION_DDOT":0}]
